[{"OBJECT_NAME":"ONEWEB-0301","OBJECT_ID":"2021-075R","EPOCH":"2026-02-01T05:36:22.018752","MEAN_MOTION":13.12443224,"ECCENTRICITY":0.00017477,"INCLINATION":87.8945,"RA_OF_ASC_NODE":17.6403,"ARG_OF_PERICENTER":74.1459,"MEAN_ANOMALY":285.9862,"EPHEMERIS_TYPE":0,"CLASSIFICATION_TYPE":"U","NORAD_CAT_ID":49090,"ELEMENT_SET_NO":999,"REV_AT_EPOCH":21673,"BSTAR":0.00025584455,"MEAN_MOTION_DOT":1.05e-6,"MEAN_MOTION_DDOT":0},{"OBJECT_NAME":"ONEWEB-0302","OBJECT_ID":"2021-075S","EPOCH":"2026-01-31T21:57:43.410528","MEAN_MOTION":13.12443773,"ECCENTRICITY":0.00019035,"INCLINATION":87.8944,"RA_OF_ASC_NODE":17.712,"ARG_OF_PERICENTER":95.9517,"MEAN_ANOMALY":264.1828,"EPHEMERIS_TYPE":0,"CLASSIFICATION_TYPE":"U","NORAD_CAT_ID":49091,"ELEMENT_SET_NO":999,"REV_AT_EPOCH":21667,"BSTAR":-0.00084100667,"MEAN_MOTION_DOT":-2.9e-6,"MEAN_MOTION_DDOT":0},{"OBJECT_NAME":"ONEWEB-0304","OBJECT_ID":"2021-075T","EPOCH":"2026-02-01T05:49:20.801568","MEAN_MOTION":13.1764989,"ECCENTRICITY":0.00019895,"INCLINATION":87.9099,"RA_OF_ASC_NODE":32.8763,"ARG_OF_PERICENTER":89.5774,"MEAN_ANOMALY":270.5585,"EPHEMERIS_TYPE":0,"CLASSIFICATION_TYPE":"U","NORAD_CAT_ID":49092,"ELEMENT_SET_NO":999,"REV_AT_EPOCH":21567,"BSTAR":0.00025302717,"MEAN_MOTION_DOT":1.11e-6,"MEAN_MOTION_DDOT":0},{"OBJECT_NAME":"ONEWEB-0305","OBJECT_ID":"2021-075U","EPOCH":"2026-02-01T00:11:34.513440","MEAN_MOTION":13.17651737,"ECCENTRICITY":0.00023007,"INCLINATION":87.9101,"RA_OF_ASC_NODE":32.9014,"ARG_OF_PERICENTER":88.8525,"MEAN_ANOMALY":271.287,"EPHEMERIS_TYPE":0,"CLASSIFICATION_TYPE":"U","NORAD_CAT_ID":49093,"ELEMENT_SET_NO":999,"REV_AT_EPOCH":21567,"BSTAR":0.00013949666,"MEAN_MOTION_DOT":6.7e-7,"MEAN_MOTION_DDOT":0},{"OBJECT_NAME":"ONEWEB-0308","OBJECT_ID":"2021-075V","EPOCH":"2026-01-31T21:47:57.654816","MEAN_MOTION":13.12442867,"ECCENTRICITY":0.00018079,"INCLINATION":87.8942,"RA_OF_ASC_NODE":17.7065,"ARG_OF_PERICENTER":85.4597,"MEAN_ANOMALY":274.6738,"EPHEMERIS_TYPE":0,"CLASSIFICATION_TYPE":"U","NORAD_CAT_ID":49094,"ELEMENT_SET_NO":999,"REV_AT_EPOCH":21668,"BSTAR":-0.0011686924,"MEAN_MOTION_DOT":-4.08e-6,"MEAN_MOTION_DDOT":0},{"OBJECT_NAME":"ONEWEB-0309","OBJECT_ID":"2021-075W","EPOCH":"2026-02-01T00:16:25.430880","MEAN_MOTION":13.17648436,"ECCENTRICITY":0.00019248,"INCLINATION":87.9098,"RA_OF_ASC_NODE":32.916,"ARG_OF_PERICENTER":101.9084,"MEAN_ANOMALY":258.2264,"EPHEMERIS_TYPE":0,"CLASSIFICATION_TYPE":"U","NORAD_CAT_ID":49095,"ELEMENT_SET_NO":999,"REV_AT_EPOCH":21564,"BSTAR":-0.00048185383,"MEAN_MOTION_DOT":-1.74e-6,"MEAN_MOTION_DDOT":0},{"OBJECT_NAME":"ONEWEB-0310","OBJECT_ID":"2021-075X","EPOCH":"2026-02-01T05:29:02.875200","MEAN_MOTION":13.12442421,"ECCENTRICITY":0.00018006,"INCLINATION":87.8934,"RA_OF_ASC_NODE":17.6759,"ARG_OF_PERICENTER":86.4687,"MEAN_ANOMALY":273.6647,"EPHEMERIS_TYPE":0,"CLASSIFICATION_TYPE":"U","NORAD_CAT_ID":49096,"ELEMENT_SET_NO":999,"REV_AT_EPOCH":21735,"BSTAR":-0.00012403607,"MEAN_MOTION_DOT":-3.2e-7,"MEAN_MOTION_DDOT":0},{"OBJECT_NAME":"ONEWEB-0311","OBJECT_ID":"2021-075Y","EPOCH":"2026-02-01T05:54:12.823200","MEAN_MOTION":13.1764971,"ECCENTRICITY":0.00021935,"INCLINATION":87.9098,"RA_OF_ASC_NODE":32.8642,"ARG_OF_PERICENTER":85.1686,"MEAN_ANOMALY":274.9696,"EPHEMERIS_TYPE":0,"CLASSIFICATION_TYPE":"U","NORAD_CAT_ID":49097,"ELEMENT_SET_NO":999,"REV_AT_EPOCH":21572,"BSTAR":5.3210086e-5,"MEAN_MOTION_DOT":3.4e-7,"MEAN_MOTION_DDOT":0},{"OBJECT_NAME":"ONEWEB-0312","OBJECT_ID":"2021-075Z","EPOCH":"2026-01-31T22:58:39.669312","MEAN_MOTION":13.17648804,"ECCENTRICITY":0.00021785,"INCLINATION":87.9088,"RA_OF_ASC_NODE":32.9427,"ARG_OF_PERICENTER":94.0345,"MEAN_ANOMALY":266.1035,"EPHEMERIS_TYPE":0,"CLASSIFICATION_TYPE":"U","NORAD_CAT_ID":49098,"ELEMENT_SET_NO":999,"REV_AT_EPOCH":21566,"BSTAR":-0.00065915305,"MEAN_MOTION_DOT":-2.43e-6,"MEAN_MOTION_DDOT":0},{"OBJECT_NAME":"ONEWEB-0313","OBJECT_ID":"2021-075AA","EPOCH":"2026-01-31T23:05:45.263616","MEAN_MOTION":13.17650456,"ECCENTRICITY":0.0001971,"INCLINATION":87.9086,"RA_OF_ASC_NODE":32.9485,"ARG_OF_PERICENTER":88.3051,"MEAN_ANOMALY":271.8307,"EPHEMERIS_TYPE":0,"CLASSIFICATION_TYPE":"U","NORAD_CAT_ID":49099,"ELEMENT_SET_NO":999,"REV_AT_EPOCH":21565,"BSTAR":-0.00013812256,"MEAN_MOTION_DOT":-4.1e-7,"MEAN_MOTION_DDOT":0},{"OBJECT_NAME":"ONEWEB-0314","OBJECT_ID":"2021-075AB","EPOCH":"2026-02-01T00:06:42.372576","MEAN_MOTION":13.17648048,"ECCENTRICITY":0.00022199,"INCLINATION":87.9103,"RA_OF_ASC_NODE":32.8993,"ARG_OF_PERICENTER":93.2085,"MEAN_ANOMALY":266.9301,"EPHEMERIS_TYPE":0,"CLASSIFICATION_TYPE":"U","NORAD_CAT_ID":49100,"ELEMENT_SET_NO":999,"REV_AT_EPOCH":21563,"BSTAR":0.00016829274,"MEAN_MOTION_DOT":7.8e-7,"MEAN_MOTION_DDOT":0},{"OBJECT_NAME":"ONEWEB-0315","OBJECT_ID":"2021-075AC","EPOCH":"2026-02-01T04:50:01.310784","MEAN_MOTION":13.12442375,"ECCENTRICITY":0.0002115,"INCLINATION":87.8948,"RA_OF_ASC_NODE":17.6345,"ARG_OF_PERICENTER":78.5001,"MEAN_ANOMALY":281.6365,"EPHEMERIS_TYPE":0,"CLASSIFICATION_TYPE":"U","NORAD_CAT_ID":49101,"ELEMENT_SET_NO":999,"REV_AT_EPOCH":21733,"BSTAR":-0.00065230523,"MEAN_MOTION_DOT":-2.22e-6,"MEAN_MOTION_DDOT":0},{"OBJECT_NAME":"ONEWEB-0316","OBJECT_ID":"2021-075AD","EPOCH":"2026-01-31T23:03:13.269600","MEAN_MOTION":13.18685863,"ECCENTRICITY":0.00019071,"INCLINATION":87.9198,"RA_OF_ASC_NODE":2.5095,"ARG_OF_PERICENTER":80.9385,"MEAN_ANOMALY":279.1963,"EPHEMERIS_TYPE":0,"CLASSIFICATION_TYPE":"U","NORAD_CAT_ID":49102,"ELEMENT_SET_NO":999,"REV_AT_EPOCH":21925,"BSTAR":-0.00020750325,"MEAN_MOTION_DOT":-6.9e-7,"MEAN_MOTION_DDOT":0},{"OBJECT_NAME":"ONEWEB-0317","OBJECT_ID":"2021-075AE","EPOCH":"2026-02-01T04:54:52.954848","MEAN_MOTION":13.12441746,"ECCENTRICITY":0.00014182,"INCLINATION":87.8949,"RA_OF_ASC_NODE":17.6558,"ARG_OF_PERICENTER":109.2676,"MEAN_ANOMALY":250.8606,"EPHEMERIS_TYPE":0,"CLASSIFICATION_TYPE":"U","NORAD_CAT_ID":49103,"ELEMENT_SET_NO":999,"REV_AT_EPOCH":21735,"BSTAR":-0.00093960442,"MEAN_MOTION_DOT":-3.25e-6,"MEAN_MOTION_DDOT":0},{"OBJECT_NAME":"ONEWEB-0318","OBJECT_ID":"2021-075AF","EPOCH":"2026-02-01T04:26:15.143136","MEAN_MOTION":13.1868625,"ECCENTRICITY":0.00020873,"INCLINATION":87.9208,"RA_OF_ASC_NODE":2.4544,"ARG_OF_PERICENTER":79.7955,"MEAN_ANOMALY":280.3413,"EPHEMERIS_TYPE":0,"CLASSIFICATION_TYPE":"U","NORAD_CAT_ID":49104,"ELEMENT_SET_NO":999,"REV_AT_EPOCH":21924,"BSTAR":-0.00015054007,"MEAN_MOTION_DOT":-4.6e-7,"MEAN_MOTION_DDOT":0},{"OBJECT_NAME":"ONEWEB-0319","OBJECT_ID":"2021-075AG","EPOCH":"2026-02-01T05:56:38.160096","MEAN_MOTION":13.1764988,"ECCENTRICITY":0.0002267,"INCLINATION":87.909,"RA_OF_ASC_NODE":32.8793,"ARG_OF_PERICENTER":77.8314,"MEAN_ANOMALY":282.3071,"EPHEMERIS_TYPE":0,"CLASSIFICATION_TYPE":"U","NORAD_CAT_ID":49105,"ELEMENT_SET_NO":999,"REV_AT_EPOCH":21570,"BSTAR":8.1642857e-5,"MEAN_MOTION_DOT":4.5e-7,"MEAN_MOTION_DDOT":0}]
