ONEWEB-0301             
1 49090U 21075R   26032.23358818  .00000105  00000+0  25584-3 0  9990
2 49090  87.8945  17.6403 0001747  74.1459 285.9862 13.12443224216730
ONEWEB-0302             
1 49091U 21075S   26031.91508577 -.00000290  00000+0 -84101-3 0  9991
2 49091  87.8944  17.7120 0001903  95.9517 264.1828 13.12443773216670
ONEWEB-0304             
1 49092U 21075T   26032.24260187  .00000111  00000+0  25303-3 0  9990
2 49092  87.9099  32.8763 0001989  89.5774 270.5585 13.17649890215675
ONEWEB-0305             
1 49093U 21075U   26032.00803835  .00000067  00000+0  13950-3 0  9993
2 49093  87.9101  32.9014 0002300  88.8525 271.2870 13.17651737215672
ONEWEB-0308             
1 49094U 21075V   26031.90830619 -.00000408  00000+0 -11687-2 0  9997
2 49094  87.8942  17.7065 0001807  85.4597 274.6738 13.12442867216684
ONEWEB-0309             
1 49095U 21075W   26032.01140545 -.00000174  00000+0 -48185-3 0  9997
2 49095  87.9098  32.9160 0001924 101.9084 258.2264 13.17648436215640
ONEWEB-0310             
1 49096U 21075X   26032.22850550 -.00000032  00000+0 -12404-3 0  9993
2 49096  87.8934  17.6759 0001800  86.4687 273.6647 13.12442421217359
ONEWEB-0311             
1 49097U 21075Y   26032.24598175  .00000034  00000+0  53210-4 0  9999
2 49097  87.9098  32.8642 0002193  85.1686 274.9696 13.17649710215725
ONEWEB-0312             
1 49098U 21075Z   26031.95740358 -.00000243  00000+0 -65915-3 0  9997
2 49098  87.9088  32.9427 0002178  94.0345 266.1035 13.17648804215667
ONEWEB-0313             
1 49099U 21075AA  26031.96232944 -.00000041  00000+0 -13812-3 0  9991
2 49099  87.9086  32.9485 0001971  88.3051 271.8307 13.17650456215650
ONEWEB-0314             
1 49100U 21075AB  26032.00465709  .00000078  00000+0  16829-3 0  9996
2 49100  87.9103  32.8993 0002219  93.2085 266.9301 13.17648048215635
ONEWEB-0315             
1 49101U 21075AC  26032.20140406 -.00000222  00000+0 -65231-3 0  9997
2 49101  87.8948  17.6345 0002115  78.5001 281.6365 13.12442375217336
ONEWEB-0316             
1 49102U 21075AD  26031.96057025 -.00000069  00000+0 -20750-3 0  9990
2 49102  87.9198   2.5095 0001907  80.9385 279.1963 13.18685863219256
ONEWEB-0317             
1 49103U 21075AE  26032.20477957 -.00000325  00000+0 -93960-3 0  9997
2 49103  87.8949  17.6558 0001418 109.2676 250.8606 13.12441746217359
ONEWEB-0318             
1 49104U 21075AF  26032.18489749 -.00000046  00000+0 -15054-3 0  9995
2 49104  87.9208   2.4544 0002087  79.7955 280.3413 13.18686250219241
ONEWEB-0319             
1 49105U 21075AG  26032.24766389  .00000045  00000+0  81643-4 0  9996
2 49105  87.9090  32.8793 0002267  77.8314 282.3071 13.17649880215708
